# All asteroid colors (except for Dactyl) are derived from SMASS spectra
# and converted to RGB values using Matt Wronkiewicz's spectrum2rgb utility
# that is distributed with the Celestia source package.

# A few main belt asteroids

"2 Pallas:Pallas" "Sol"
{
	Class	"asteroid"
	Mesh	"pallas.cmod"
	Orientation	[ 90 0 1 0 ]
	Texture	"asteroid.*"
	Radius	275
	EllipticalOrbit
	{
		Epoch	2459000.5  # 2020 May 31
		Period	4.619879508838
		SemiMajorAxis	2.773841433754
		Eccentricity	0.229972273669
		Inclination	34.832932232998
		AscendingNode	173.024741462928
		ArgOfPericenter	310.202391565385
		MeanAnomaly	144.975678021763
	}
	UniformRotation
	{
		Period	7.8132214
		Inclination	84
		AscendingNode	118
		MeridianAngle	339
	}
	LunarLambert	0.5
	Albedo	0.1587
	InfoURL	"https://en.wikipedia.org/wiki/2_Pallas"
}

"3 Juno:Juno" "Sol"
{
	Class	"asteroid"
	Mesh	"juno.cmod"
	Orientation	[ 90 0 1 0 ]
	Texture	"asteroid.*"
	Color	[ 1.000 0.950 0.840 ]
	BlendTexture	true
	Radius	160
	EllipticalOrbit
	{
		Epoch	2457000.5  # 2014 Dec 09
		Period	4.364614795847
		SemiMajorAxis	2.670700240558908
		Eccentricity	0.2554482627817375
		Inclination	12.98166179450518
		AscendingNode	169.8711811946533
		ArgOfPericenter	248.4099652667037
		MeanAnomaly	33.07715332505229
	}
	UniformRotation
	{
		Period	7.21
		Inclination	50
		AscendingNode	196
	}
	LunarLambert	0.5
	Albedo	0.2383
	InfoURL	"https://en.wikipedia.org/wiki/3_Juno"
}

"4 Vesta:Vesta" "Sol"
{
	Class	"asteroid"
	Mesh	"vesta.cmod"
	Orientation	[ 90 0 1 0 ]
	Texture	"vesta.*"
	Color	[ 1.000 0.951 0.842 ]
	BlendTexture	true
	Radius	286.3
	EllipticalOrbit
	{
		Epoch	2456171.5  # 2012 Sept 01
		Period	3.63288456954891
		SemiMajorAxis	2.363173444663091
		Eccentricity	0.08798159971386635
		Inclination	7.135687172609167
		AscendingNode	103.8677530538142
		ArgOfPericenter	150.4876611372123
		MeanAnomaly	156.5397505885364
	}
	UniformRotation
	{
		Epoch	2450124.90833  # 1996 Feb 11 09:48
		Period	5.34212766
		Inclination	40
		AscendingNode	91
		MeridianAngle	325.77
	}
	LunarLambert	0.5
	Albedo	0.4228
	InfoURL	"https://en.wikipedia.org/wiki/4_Vesta"
}

"10 Hygiea:Hygiea:A900 GA" "Sol"
{
	Class	"asteroid"
	Mesh	"hygiea.cmod"
	Orientation	[ 90 0 1 0 ]
	Texture	"asteroid.*"
	Color	[ 1.00 0.95 0.88 ]
	BlendTexture	true
	Radius	225
	EllipticalOrbit
	{
		Epoch	2458600.5  # 2019 Apr 27
		Period	5.568290989911
		SemiMajorAxis	3.141539179115
		Eccentricity	0.11246065767
		Inclination	3.831560034123
		AscendingNode	283.202166862734
		ArgOfPericenter	312.315206246552
		MeanAnomaly	152.184851207891
	}
	UniformRotation
	{
		Period	13.82559
		Inclination	60
		AscendingNode	205
	}
	LunarLambert	0.5
	Albedo	0.0717
	InfoURL	"https://en.wikipedia.org/wiki/10_Hygiea"
}

# Asteroids visited by spacecraft

"21 Lutetia:Lutetia" "Sol"
{
	Class	"asteroid"
	Mesh	"lutetia.cmod"
	Orientation	[ 90 0 1 0 ]
	Texture	"lutetia.*"
	Radius	60.5
	EllipticalOrbit
	{
		Epoch	2455387.5  # 2010 Jul 10
		Period	3.8019400433816
		SemiMajorAxis	2.435929459338225
		Eccentricity	0.1628635150749446
		Inclination	3.063729334850146
		AscendingNode	80.90023215493108
		ArgOfPericenter	250.1877248972368
		MeanAnomaly	230.6845505220987
	}
	UniformRotation
	{
		Period	8.1655
		Inclination	97.76469958
		AscendingNode	142.1877621
	}
	LunarLambert	0.5
	Albedo	0.2212
	InfoURL	"https://en.wikipedia.org/wiki/21_Lutetia"
}

"243 Ida:Ida:1988 DB1:A910 CD" "Sol"
{
	Class	"asteroid"
	Mesh	"ida.cmod"
	MeshCenter	[ -1.424 -0.417 0.115 ]
	Texture	"ida.*"
	Radius	29.9
	EllipticalOrbit
	{
		Epoch	2449227.5  # 1993 Aug 28
		Period	4.8462685261763
		SemiMajorAxis	2.863735135636234
		Eccentricity	0.04310710055698948
		Inclination	1.137110894899130
		AscendingNode	324.5866431229683
		ArgOfPericenter	113.0166231618901
		MeanAnomaly	131.4933081625327
	}
	UniformRotation
	{
		Period	4.633632
		Inclination	156.96
		AscendingNode	352.77
		MeridianAngle	9.46
	}
	LunarLambert	0.5
	Albedo	0.2383
	InfoURL	"https://en.wikipedia.org/wiki/243_Ida"
}

"Dactyl:243 Ida I:Ida I:S-1993 (243) 1" "Sol/Ida"
{
	Class	"moon"
	Mesh	"dactyl.cmod"
	Texture	"asteroid.*"
	Radius	0.8
	EllipticalOrbit
	{
		Epoch	2449228.2028  # 1993 Aug 28 16:52:02
		Period	0.96534
		SemiMajorAxis	83.5
		Eccentricity	0.13
		Inclination	8.0
		AscendingNode	90.0
		ArgOfPericenter	220.0
	}
	UniformRotation
	{
		MeridianAngle	123
	}
	LunarLambert	0.5
	Albedo	0.21
	InfoURL	"http://www.johnstonsarchive.net/astro/astmoons/am-00243.html"
}

"253 Mathilde:Mathilde:1949 OL1:A915 TN" "Sol"
{
	Class	"asteroid"
	Mesh	"mathilde.cmod"
	Texture	"mathilde.*"
	Color	[ 1.000 0.999 0.984 ]
	BlendTexture	true
	Radius	33
	EllipticalOrbit
	{
		Epoch	2450626.5  # 1997 Jun 27
		Period	4.30341725176148
		SemiMajorAxis	2.645677087485205
		Eccentricity	0.266182185847368
		Inclination	6.708937926340033
		AscendingNode	179.8684718324727
		ArgOfPericenter	156.2070503921724
		MeanAnomaly	15.52068639527625
	}
	UniformRotation
	{
		Epoch	2450627.0  # 1997 Jun 27 12:00
		Period	417.744
		MeridianAngle	350
	}
	LunarLambert	0.5
	Albedo	0.0436
	InfoURL	"https://en.wikipedia.org/wiki/253_Mathilde"
}

"433 Eros:Eros:1898 DQ:1956 PC" "Sol"
{
	Class	"asteroid"
	Mesh	"eros.cmod"
	MeshCenter	[ -1.262 0.168 -0.164 ]
	Texture	"eros.*"
	Radius	17.2
	EllipticalOrbit
	{
		Epoch	2451953.5  # 2001 Feb 13
		Period	1.76098104976396
		SemiMajorAxis	1.458246647976697
		Eccentricity	0.2229075000524295
		Inclination	10.82945098236271
		AscendingNode	304.4111456531975
		ArgOfPericenter	178.6290298993842
		MeanAnomaly	286.3514330735705
	}
	UniformRotation
	{
		Period	5.270
		Inclination	78.70
		AscendingNode	107.23
		MeridianAngle	338.165
	}
	LunarLambert	0.5
	Albedo	0.25
	InfoURL	"https://en.wikipedia.org/wiki/433_Eros"
}

"951 Gaspra:Gaspra:1916 S45:1955 MG1:A913 YA" "Sol"
{
	Class	"asteroid"
	Mesh	"gaspra.cmod"
	MeshCenter	[ 1.540 -0.064 -0.118 ]
	Texture	"gaspra.*"
	Radius	9.1
	EllipticalOrbit
	{
		Epoch	2448558.5  # 1991 Oct 29
		Period	3.2846479784353
		SemiMajorAxis	2.209634387508869
		Eccentricity	0.1738754270123919
		Inclination	4.097577988971894
		AscendingNode	253.4454444531708
		ArgOfPericenter	129.0460702731027
		MeanAnomaly	280.6191587386546
	}
	UniformRotation
	{
		Period	7.042073
		Inclination	69.28
		AscendingNode	109.59
		MeridianAngle	58.865
	}
	LunarLambert	0.5
	Albedo	0.22
	InfoURL	"https://en.wikipedia.org/wiki/951_Gaspra"
}

"2867 Steins:Steins:1969 VC:1954 QL:1979 FJ4:1980 VV1:1980 WB" "Sol"
{
	Class	"asteroid"
	Mesh	"steins.cmod"
	Orientation	[ 90 0 1 0 ]
	Texture	"steins.*"
	Radius	3.335
	EllipticalOrbit
	{
		Epoch	2454714.5  # 2008 Sept 05
		Period	3.6332341337077
		SemiMajorAxis	2.363325035403005
		Eccentricity	0.1462213379829717
		Inclination	9.944941616831395
		AscendingNode	55.52931056779465
		ArgOfPericenter	250.5168619972865
		MeanAnomaly	317.3097878957633
	}
	UniformRotation
	{
		Period	6.049
		Inclination	169.5
	}
	LunarLambert	0.5
	Albedo	0.34
	InfoURL	"https://en.wikipedia.org/wiki/2867_Steins"
}

"5535 Annefrank:Annefrank:1942 EM:1978 EK6:1986 TV14:1991 BO2" "Sol"
{
	Class	"asteroid"
	Mesh	"annefrank.cmod"
	Texture	"asteroid.*"
	Radius	3.3
	EllipticalOrbit
	{
		Epoch	2452580.5  # 2002 Nov 02
		Period	3.29181007209194
		SemiMajorAxis	2.212845256755918
		Eccentricity	0.06321373826651061
		Inclination	4.246898338036996
		AscendingNode	120.7049579820952
		ArgOfPericenter	8.711678567350527
		MeanAnomaly	200.3910177421374
	}
	UniformRotation
	{
		Period	15.156
	}
	LunarLambert	0.5
	Albedo	0.311
	InfoURL	"https://en.wikipedia.org/wiki/5535_Annefrank"
}

"9969 Braille:Braille:1992 KD" "Sol"
{
	Class	"asteroid"
	Mesh	"braille.cmod"
	Texture	"asteroid.*"
	Color	[ 1.00 0.88 0.75 ]
	BlendTexture	true
	Radius	1.05
	EllipticalOrbit
	{
		Epoch	2451388.5  # 1999 Jul 29
		Period	3.5835965736465
		SemiMajorAxis	2.341750420812260
		Eccentricity	0.4335434953067092
		Inclination	28.94885142204759
		AscendingNode	242.1583629212672
		ArgOfPericenter	355.3586728897821
		MeanAnomaly	1.676369430480154
	}
	UniformRotation
	{
		Period	226.4
	}
	LunarLambert	0.5
	Albedo	0.34
	InfoURL	"https://en.wikipedia.org/wiki/9969_Braille"
}

"25143 Itokawa:Itokawa:1998 SF36" "Sol"
{
	Class	"asteroid"
	Mesh	"itokawa.cmod"
	Orientation	[ 90 0 1 0 ]
	Texture	"itokawa.*"
	Radius	0.2675
	EllipticalOrbit
	{
		Epoch	2459000.5  # 2020 May 31
		Period	1.5236957114
		SemiMajorAxis	1.32411801798
		Eccentricity	0.280116645858
		Inclination	1.62130346341
		AscendingNode	69.080389384579
		ArgOfPericenter	162.814771093436
		MeanAnomaly	187.632749030486
	}
	BodyFrame
	{
		EquatorJ2000	{ Center "Sol" }
	}
	UniformRotation
	{
		Period	12.132
		Inclination	156.30
		AscendingNode	180.53
	}
	LunarLambert	0.5
	Albedo	0.34
	InfoURL	"https://en.wikipedia.org/wiki/25143_Itokawa"
}

"101955 Bennu:Bennu:1999 RQ36" "Sol"
{
	Class	"asteroid"
	Mesh	"bennu.cmod"
	Orientation	[ 90 0 1 0 ]
	Texture	"bennu.*"
	Radius	0.282365
	EllipticalOrbit
	{
		Epoch	2458727.5  # 2019 Sept 01
		Period	1.19479586873504
		SemiMajorAxis	1.125961843256656
		Eccentricity	0.2036625454017771
		Inclination	6.033977193706041
		AscendingNode	2.013426846473177
		ArgOfPericenter	66.31912658834005
		MeanAnomaly	192.3986883726782
	}
	UniformRotation
	{
		Period	4.296057
		Inclination	173.32
		AscendingNode	161.074
	}
	LunarLambert	0.5
	Albedo	0.044
	InfoURL	"https://en.wikipedia.org/wiki/101955_Bennu"
}

